#aV2021  3 18  0  0  0.00000000     288 DD+AD WGS84 FIT  NGA
## 2149 345600.00000000   300.00000000 59291 0.0000000000000
+   32     1  2  3  4  5  6  7  8  9 10 11 12 13 14 15 16 17
+         18 19 20 21 22 23 24 25 26 27 28 29 30 31 32  0  0
+          0  0  0  0  0  0  0  0  0  0  0  0  0  0  0  0  0
+          0  0  0  0  0  0  0  0  0  0  0  0  0  0  0  0  0
+          0  0  0  0  0  0  0  0  0  0  0  0  0  0  0  0  0
++         2  2  2  2  2  2  2  2  2  2  2  2  2  2  2  2  2
++         2  2  2  2  2  2  2  2  2  2  2  2  2  2  2  0  0
++         0  0  0  0  0  0  0  0  0  0  0  0  0  0  0  0  0
++         0  0  0  0  0  0  0  0  0  0  0  0  0  0  0  0  0
++         0  0  0  0  0  0  0  0  0  0  0  0  0  0  0  0  0
%c cc cc ccc ccc cccc cccc cccc cccc ccccc ccccc ccccc ccccc
%c cc cc ccc ccc cccc cccc cccc cccc ccccc ccccc ccccc ccccc
%f  0.0000000  0.000000000  0.00000000000  0.000000000000000
%f  0.0000000  0.000000000  0.00000000000  0.000000000000000
%i    0    0    0    0      0      0      0      0         0
%i    0    0    0    0      0      0      0      0         0
/*      NGA, ST. LOUIS,MO.                                  
/*   EPHEMERIS COMPUTED FROM 2 DAYS OF DATA                 
/*   EPOCHA v5 SMOOTHER                                     
/*   G2139 IERS2010 SATAF SATAPC                            
*  2021  3 18 17 50  0.00000000
P  1  10077.750305 -19848.011883 -14466.394082    738.232233                    
V  1  15381.517018  -9584.819332  24614.191794     -0.088878                    
P  2 -21716.031396  13527.540501  -6536.988393   -587.352476                    
V  2   4947.907001  -8177.234925 -30289.857114     -0.036529                    
P  3     42.731743 -15861.704853 -21398.649233   -111.662231                    
V  3  25165.869265   9640.946760  -7016.461870     -0.106210                    
P  4   2258.060791 -25476.603136  -7055.721774   -186.931402                    
V  4   3647.125424   8643.554168 -30070.847205     -0.022246                    
P  5 -18138.270599   6975.964485  18038.260175    -36.574929                    
V  5 -21216.689471  -9410.741130 -17366.796691     -0.010416                    
P  6 -20313.707052   1453.700313 -17018.378580      1.545935                    
V  6  16267.532797 -14360.024390 -20510.533354      0.020469                    
P  7  -4552.555475 -15596.080778  21269.948119     94.078853                    
V  7  21443.173442 -15338.090881  -7254.536343      0.123496                    
P  8   6576.955895 -21269.840541  14247.617776    -14.217597                    
V  8   4970.382026  17642.540415  24337.380410     -0.014275                    
P  9  -6638.115067 -25430.510175   3676.700718   -332.107451                    
V  9   2260.400052  -5162.067196 -31150.188806     -0.031035                    
P 10  23712.759032  11890.822812   3192.228482    -83.666380                    
V 10  -4467.682134    711.803622  31405.593140     -0.079087                    
P 11   8216.816360 -25254.490185  -3748.181733      4.714447                    
V 11   5229.283680  -2264.638998  29982.160478      0.106540                    
P 12  -4854.273999  14330.064126 -22090.691346    -15.722992                    
V 12 -24633.449282 -11977.746563  -2235.124918     -0.053013                    
P 13 -12973.065470  12969.532027  19027.427856    109.342596                    
V 13  -1563.467432 -24453.749809  15616.055767      0.044829                    
P 14 -22566.013570 -13441.724507   3996.748419     99.785018                    
V 14   5817.305724   -477.353656  31133.243298     -0.004111                    
P 15  -4503.625784  22170.788879  13266.509539   -162.258734                    
V 15  -7634.678136 -16261.104671  24297.703932      0.025998                    
P 16  20476.593380  -2281.305416  16774.518488   -295.982068                    
V 16  18560.638249  11039.343546 -20403.262652     -0.058038                    
P 17 -12909.238797 -14661.938651 -17566.194171    411.810660                    
V 17   -446.782355 -23152.107407  19187.262416      0.063169                    
P 18   7251.104601  13330.522425  21789.603745    350.765287                    
V 18 -22317.001692  16348.166895  -2631.003555      0.007895                    
P 19 -14680.730364  -5868.711977 -21641.018274    -24.661849                    
V 19   -478.999919 -26734.346523   7581.278472      0.050247                    
P 20  14834.430305  15551.626208  15725.749305    524.075640                    
V 20 -19965.963346  -2581.705073  21063.901876     -0.003671                    
P 21  15921.752923 -19918.051292  -5792.379610    104.146292                    
V 21   8472.381655  -3142.126606  30780.890697      0.030210                    
P 22   9833.214992 -13065.781289 -20703.169347   -657.701592                    
V 22  25515.712679   8502.501560   6867.628834      0.081695                    
P 23  16828.943347  15947.684374  12974.645008    117.173424                    
V 23 -16205.935604  -3744.618950  25540.474939     -0.010518                    
P 24 -13346.867295  20954.617921  -9061.293348      0.902821                    
V 24 -10802.875856   4936.476583  28469.581927     -0.005489                    
P 25  10314.937160  17409.307805 -17606.870765    101.350841                    
V 25 -20696.779733  -6798.222392 -18861.157138      0.074627                    
P 26  25262.601397   2734.932761   8133.914719     59.866068                    
V 26   8764.146348   6251.500904 -28857.744945      0.053449                    
P 27  12811.037464  -9890.276103  20815.340629    -96.394122                    
V 27   4635.973540  26465.930295  10004.246396     -0.070981                    
P 28 -22791.890896 -13351.996979   2000.697786    600.249355                    
V 28   2838.756253  -1402.407244  32027.880392     -0.056649                    
P 29   4649.478949  25748.260889   4396.381467   -314.157591                    
V 29  -1675.288640   5755.049362 -31657.381227     -0.068761                    
P 30 -16050.199984  -6604.826491  20211.184649   -400.278032                    
V 30  19941.475660 -16060.053383  10385.461996     -0.054687                    
P 31  22075.288484  -3342.842578 -14813.273966   -106.354472                    
V 31 -13765.289332  12488.040175 -23003.211351     -0.022639                    
P 32  14792.337569  12366.776907 -18237.314520     21.381026                    
V 32   1896.894869  23287.924582  17065.554036      0.006219                    
EOF
